{"type": "FeatureCollection", "features": [ {"type": "Feature", "properties": {"norad_id": 32289, "name": "YAOGAN-3", "group": "resource", "lat": 42.98738214958096, "lon": -151.3718058883793, "alt_km": 594.4084347511607, "timestamp": "2025-12-20T16:47:35.947978+00:00", "meta": {"OBJECT_NAME": "YAOGAN-3", "OBJECT_ID": "2007-055A", "EPOCH": "2025-12-20T12:57:34.050816", "MEAN_MOTION": 14.89891329, "ECCENTRICITY": 0.0001159, "INCLINATION": 97.8356, "RA_OF_ASC_NODE": 21.0951, "ARG_OF_PERICENTER": 71.498, "MEAN_ANOMALY": 288.6364, "EPHEMERIS_TYPE": 0, "CLASSIFICATION_TYPE": "U", "NORAD_CAT_ID": 32289, "ELEMENT_SET_NO": 999, "REV_AT_EPOCH": 97925, "BSTAR": 0.00014347, "MEAN_MOTION_DOT": 1.324e-05, "MEAN_MOTION_DDOT": 0}, "tle": {"line1": "1 32289U 07055A   25354.53997744  .00001324  00000+0  14347-3 0  9999", "line2": "2 32289  97.8356  21.0951 0001159  71.4980 288.6364 14.89891329979250"}}, "geometry": {"type": "Point", "coordinates": [-151.3718058883793, 42.98738214958096]}}, {"type": "Feature", "properties": {"norad_id": 32376, "name": "COSMO-SKYMED 2", "group": "resource", "lat": -14.440118063430916, "lon": -6.140324631524204, "alt_km": 627.588920795235, "timestamp": "2025-12-20T16:47:35.947988+00:00", "meta": {"OBJECT_NAME": "COSMO-SKYMED 2", "OBJECT_ID": "2007-059A", "EPOCH": "2025-12-20T12:40:41.784960", "MEAN_MOTION": 14.82151401, "ECCENTRICITY": 0.0001348, "INCLINATION": 97.8804, "RA_OF_ASC_NODE": 175.7348, "ARG_OF_PERICENTER": 83.0946, "MEAN_ANOMALY": 277.042, "EPHEMERIS_TYPE": 0, "CLASSIFICATION_TYPE": "U", "NORAD_CAT_ID": 32376, "ELEMENT_SET_NO": 999, "REV_AT_EPOCH": 97553, "BSTAR": 5.2466e-05, "MEAN_MOTION_DOT": 3.66e-06, "MEAN_MOTION_DDOT": 0}, "tle": {"line1": "1 32376U 07059A   25354.52826140  .00000366  00000+0  52466-4 0  9990", "line2": "2 32376  97.8804 175.7348 0001348  83.0946 277.0420 14.82151401975538"}}, "geometry": {"type": "Point", "coordinates": [-6.140324631524204, -14.440118063430916]}}, {"type": "Feature", "properties": {"norad_id": 32382, "name": "RADARSAT-2", "group": "resource", "lat": 81.36601883973617, "lon": -97.01327170975175, "alt_km": 783.5122220888979, "timestamp": "2025-12-20T16:47:35.948022+00:00", "meta": {"OBJECT_NAME": "RADARSAT-2", "OBJECT_ID": "2007-061A", "EPOCH": "2025-12-20T13:00:40.323168", "MEAN_MOTION": 14.29984723, "ECCENTRICITY": 0.0001137, "INCLINATION": 98.579, "RA_OF_ASC_NODE": 359.019, "ARG_OF_PERICENTER": 83.4539, "MEAN_ANOMALY": 276.6772, "EPHEMERIS_TYPE": 0, "CLASSIFICATION_TYPE": "U", "NORAD_CAT_ID": 32382, "ELEMENT_SET_NO": 999, "REV_AT_EPOCH": 94042, "BSTAR": 0.00011035, "MEAN_MOTION_DOT": 2.41e-06, "MEAN_MOTION_DDOT": 0}, "tle": {"line1": "1 32382U 07061A   25354.54213337  .00000241  00000+0  11035-3 0  9998", "line2": "2 32382  98.5790 359.0190 0001137  83.4539 276.6772 14.29984723940424"}}, "geometry": {"type": "Point", "coordinates": [-97.01327170975175, 81.36601883973617]}}, {"type": "Feature", "properties": {"norad_id": 32783, "name": "CARTOSAT-2A", "group": "resource", "lat": -61.23512224002026, "lon": -150.1701787182312, "alt_km": 640.7182855052333, "timestamp": "2025-12-20T16:47:35.948046+00:00", "meta": {"OBJECT_NAME": "CARTOSAT-2A", "OBJECT_ID": "2008-021A", "EPOCH": "2025-12-20T12:27:11.875680", "MEAN_MOTION": 14.78952409, "ECCENTRICITY": 0.0011238, "INCLINATION": 97.7924, "RA_OF_ASC_NODE": 44.0999, "ARG_OF_PERICENTER": 339.4633, "MEAN_ANOMALY": 20.6125, "EPHEMERIS_TYPE": 0, "CLASSIFICATION_TYPE": "U", "NORAD_CAT_ID": 32783, "ELEMENT_SET_NO": 999, "REV_AT_EPOCH": 95239, "BSTAR": 0.00017502, "MEAN_MOTION_DOT": 1.242e-05, "MEAN_MOTION_DDOT": 0}, "tle": {"line1": "1 32783U 08021A   25354.51888745  .00001242  00000+0  17502-3 0  9995", "line2": "2 32783  97.7924  44.0999 0011238 339.4633  20.6125 14.78952409952397"}}, "geometry": {"type": "Point", "coordinates": [-150.1701787182312, -61.23512224002026]}}, {"type": "Feature", "properties": {"norad_id": 33320, "name": "HUANJING 1A (HJ-1A)", "group": "resource", "lat": -54.45861221362046, "lon": 151.81607316478687, "alt_km": 635.122092104898, "timestamp": "2025-12-20T16:47:35.948062+00:00", "meta": {"OBJECT_NAME": "HUANJING 1A (HJ-1A)", "OBJECT_ID": "2008-041A", "EPOCH": "2025-12-20T12:29:53.772000", "MEAN_MOTION": 14.83416523, "ECCENTRICITY": 0.001961, "INCLINATION": 97.6535, "RA_OF_ASC_NODE": 342.4942, "ARG_OF_PERICENTER": 9.7033, "MEAN_ANOMALY": 350.4556, "EPHEMERIS_TYPE": 0, "CLASSIFICATION_TYPE": "U", "NORAD_CAT_ID": 33320, "ELEMENT_SET_NO": 999, "REV_AT_EPOCH": 93191, "BSTAR": 0.0001459, "MEAN_MOTION_DOT": 1.15e-05, "MEAN_MOTION_DDOT": 0}, "tle": {"line1": "1 33320U 08041A   25354.52076125  .00001150  00000+0  14590-3 0  9999", "line2": "2 33320  97.6535 342.4942 0019610   9.7033 350.4556 14.83416523931913"}}, "geometry": {"type": "Point", "coordinates": [151.81607316478687, -54.45861221362046]}}, {"type": "Feature", "properties": {"norad_id": 33321, "name": "HUANJING 1B (HJ-1B)", "group": "resource", "lat": 77.51959200303216, "lon": -50.98783308637996, "alt_km": 589.9095335545517, "timestamp": "2025-12-20T16:47:35.948074+00:00", "meta": {"OBJECT_NAME": "HUANJING 1B (HJ-1B)", "OBJECT_ID": "2008-041B", "EPOCH": "2025-12-20T13:11:48.779232", "MEAN_MOTION": 14.82842338, "ECCENTRICITY": 0.0038022, "INCLINATION": 97.6394, "RA_OF_ASC_NODE": 346.1989, "ARG_OF_PERICENTER": 51.114, "MEAN_ANOMALY": 309.3455, "EPHEMERIS_TYPE": 0, "CLASSIFICATION_TYPE": "U", "NORAD_CAT_ID": 33321, "ELEMENT_SET_NO": 999, "REV_AT_EPOCH": 93193, "BSTAR": 0.0001914, "MEAN_MOTION_DOT": 1.517e-05, "MEAN_MOTION_DDOT": 0}, "tle": {"line1": "1 33321U 08041B   25354.54987013  .00001517  00000+0  19140-3 0  9992", "line2": "2 33321  97.6394 346.1989 0038022  51.1140 309.3455 14.82842338931936"}}, "geometry": {"type": "Point", "coordinates": [-50.98783308637996, 77.51959200303216]}}, {"type": "Feature", "properties": {"norad_id": 33331, "name": "GEOEYE 1", "group": "resource", "lat": -81.76134172240079, "lon": 165.27122832157386, "alt_km": 683.4662002181985, "timestamp": "2025-12-20T16:47:35.948086+00:00", "meta": {"OBJECT_NAME": "GEOEYE 1", "OBJECT_ID": "2008-042A", "EPOCH": "2025-12-20T12:17:28.273056", "MEAN_MOTION": 14.64709875, "ECCENTRICITY": 0.0002821, "INCLINATION": 98.1244, "RA_OF_ASC_NODE": 65.6948, "ARG_OF_PERICENTER": 250.9086, "MEAN_ANOMALY": 109.1812, "EPHEMERIS_TYPE": 0, "CLASSIFICATION_TYPE": "U", "NORAD_CAT_ID": 33331, "ELEMENT_SET_NO": 999, "REV_AT_EPOCH": 92399, "BSTAR": 8.4715e-05, "MEAN_MOTION_DOT": 4.03e-06, "MEAN_MOTION_DDOT": 0}, "tle": {"line1": "1 33331U 08042A   25354.51213279  .00000403  00000+0  84715-4 0  9991", "line2": "2 33331  98.1244  65.6948 0002821 250.9086 109.1812 14.64709875923999"}}, "geometry": {"type": "Point", "coordinates": [165.27122832157386, -81.76134172240079]}}, {"type": "Feature", "properties": {"norad_id": 33396, "name": "THEOS", "group": "resource", "lat": -69.91348575831226, "lon": 76.95879775581932, "alt_km": 833.0965041093477, "timestamp": "2025-12-20T16:47:35.948096+00:00", "meta": {"OBJECT_NAME": "THEOS", "OBJECT_ID": "2008-049A", "EPOCH": "2025-12-20T12:03:28.553184", "MEAN_MOTION": 14.20099348, "ECCENTRICITY": 0.0001179, "INCLINATION": 98.5863, "RA_OF_ASC_NODE": 52.3634, "ARG_OF_PERICENTER": 94.9945, "MEAN_ANOMALY": 265.1367, "EPHEMERIS_TYPE": 0, "CLASSIFICATION_TYPE": "U", "NORAD_CAT_ID": 33396, "ELEMENT_SET_NO": 999, "REV_AT_EPOCH": 89260, "BSTAR": 0.0002455, "MEAN_MOTION_DOT": 4.8e-06, "MEAN_MOTION_DDOT": 0}, "tle": {"line1": "1 33396U 08049A   25354.50241381  .00000480  00000+0  24550-3 0  9998", "line2": "2 33396  98.5863  52.3634 0001179  94.9945 265.1367 14.20099348892601"}}, "geometry": {"type": "Point", "coordinates": [76.95879775581932, -69.91348575831226]}}, {"type": "Feature", "properties": {"norad_id": 33412, "name": "COSMO-SKYMED 3", "group": "resource", "lat": -62.89524792142563, "lon": -139.14348849332472, "alt_km": 567.6639283461755, "timestamp": "2025-12-20T16:47:35.948107+00:00", "meta": {"OBJECT_NAME": "COSMO-SKYMED 3", "OBJECT_ID": "2008-054A", "EPOCH": "2025-12-20T13:53:15.081792", "MEAN_MOTION": 15.05418987, "ECCENTRICITY": 0.001696, "INCLINATION": 97.8467, "RA_OF_ASC_NODE": 205.1024, "ARG_OF_PERICENTER": 145.8555, "MEAN_ANOMALY": 214.3765, "EPHEMERIS_TYPE": 0, "CLASSIFICATION_TYPE": "U", "NORAD_CAT_ID": 33412, "ELEMENT_SET_NO": 999, "REV_AT_EPOCH": 93005, "BSTAR": 2.312e-05, "MEAN_MOTION_DOT": 2.67e-06, "MEAN_MOTION_DDOT": 0}, "tle": {"line1": "1 33412U 08054A   25354.57864678  .00000267  00000+0  23120-4 0  9996", "line2": "2 33412  97.8467 205.1024 0016960 145.8555 214.3765 15.05418987930058"}}, "geometry": {"type": "Point", "coordinates": [-139.14348849332472, -62.89524792142563]}}, {"type": "Feature", "properties": {"norad_id": 33446, "name": "YAOGAN-4", "group": "resource", "lat": -12.098395021278709, "lon": -73.56912733282313, "alt_km": 619.6570731503789, "timestamp": "2025-12-20T16:47:35.948118+00:00", "meta": {"OBJECT_NAME": "YAOGAN-4", "OBJECT_ID": "2008-061A", "EPOCH": "2025-12-20T07:07:49.060704", "MEAN_MOTION": 14.82702731, "ECCENTRICITY": 0.0013118, "INCLINATION": 97.9192, "RA_OF_ASC_NODE": 284.3224, "ARG_OF_PERICENTER": 296.7402, "MEAN_ANOMALY": 63.2469, "EPHEMERIS_TYPE": 0, "CLASSIFICATION_TYPE": "U", "NORAD_CAT_ID": 33446, "ELEMENT_SET_NO": 999, "REV_AT_EPOCH": 91915, "BSTAR": 0.00012371, "MEAN_MOTION_DOT": 9.46e-06, "MEAN_MOTION_DDOT": 0}, "tle": {"line1": "1 33446U 08061A   25354.29709561  .00000946  00000+0  12371-3 0  9998", "line2": "2 33446  97.9192 284.3224 0013118 296.7402  63.2469 14.82702731919158"}}, "geometry": {"type": "Point", "coordinates": [-73.56912733282313, -12.098395021278709]}}]}